NORAD_CAT_ID,OBJECT_NAME,OBJECT_TYPE,EPOCH,MEAN_MOTION,ECCENTRICITY,INCLINATION,RA_OF_ASC_NODE,ARG_OF_PERICENTER,MEAN_ANOMALY,BSTAR,MEAN_MOTION_DOT,MEAN_MOTION_DDOT,TLE_LINE0,TLE_LINE1,TLE_LINE2,SEMIMAJOR_AXIS,PERIOD,APOGEE,PERIGEE,DECAYED
53743.0,STARLINK-4645,PAYLOAD,2022-12-24 20:09:35,15.08843045,0.0001709,53.2197,120.347,51.4239,308.6906,2.8291e-05,1.62e-06,0.0,0 STARLINK-4645,1 53743U 22107AV  22358.83999925  .00000162  00000-0  28291-4 0  9993,2 53743  53.2197 120.3470 0001709  51.4239 308.6906 15.08843045 17052,6917.871,95.437,540.918,538.554,0.0
53743.0,STARLINK-4645,PAYLOAD,2022-12-25 08:52:40,15.08855831,0.0001771,53.2195,117.9682,50.0153,310.0994,-0.00025308,-4.315e-05,0.0,0 STARLINK-4645,1 53743U 22107AV  22359.36991632 -.00004315  00000-0 -25308-3 0  9990,2 53743  53.2195 117.9682 0001771  50.0153 310.0994 15.08855831 17911,6917.831999999999,95.437,540.922,538.472,0.0
53743.0,STARLINK-4645,PAYLOAD,2022-12-25 15:14:14,15.08828211,0.000167,53.2199,116.7789,49.2847,310.829,6.879399999999999e-05,8.07e-06,0.0,0 STARLINK-4645,1 53743U 22107AV  22359.63488851  .00000807  00000-0  68794-4 0  9991,2 53743  53.2199 116.7789 0001670  49.2847 310.8290 15.08828211 17175,6917.916,95.438,540.937,538.626,0.0
53743.0,STARLINK-4645,PAYLOAD,2022-12-26 08:43:28,15.08835797,0.0001748,53.2197,113.5081,51.2728,308.842,-9.3276e-06,-4.37e-06,0.0,0 STARLINK-4645,1 53743U 22107AV  22360.36352969 -.00000437  00000-0 -93276-5 0  9998,2 53743  53.2197 113.5081 0001748  51.2728 308.8420 15.08835797 18068,6917.893,95.438,540.967,538.549,0.0
53743.0,STARLINK-4645,PAYLOAD,2022-12-26 16:40:23,15.0884051,0.0001823,53.2189,112.0208,52.44600000000001,307.6697,0.00014264,1.983e-05,0.0,0 STARLINK-4645,1 53743U 22107AV  22360.69472164  .00001983  00000-0  14264-3 0  9997,2 53743  53.2189 112.0208 0001823  52.4460 307.6697 15.08840510 17335,6917.879,95.438,541.005,538.4830000000002,0.0
53743.0,STARLINK-4645,PAYLOAD,2022-12-26 18:15:46,15.08846221,0.0001756,53.2197,111.7238,50.0765,310.0381,0.0001001,1.306e-05,0.0,0 STARLINK-4645,1 53743U 22107AV  22360.76095991  .00001306  00000-0  10010-3 0  9998,2 53743  53.2197 111.7238 0001756  50.0765 310.0381 15.08846221 18121,6917.861,95.437,540.941,538.512,0.0
53743.0,STARLINK-4645,PAYLOAD,2022-12-27 00:37:18,15.0885543,0.0001833,53.2205,110.5348,49.6174,310.4978,0.00017157,2.445e-05,0.0,0 STARLINK-4645,1 53743U 22107AV  22361.02591105  .00002445  00000-0  17157-3 0  9990,2 53743  53.2205 110.5348 0001833  49.6174 310.4978 15.08855430 17389,6917.833000000001,95.437,540.966,538.43,0.0
53743.0,STARLINK-4645,PAYLOAD,2022-12-27 16:31:09,15.08852239,0.0001866,53.2204,107.5614,49.4965,310.6189,0.00018373,2.638e-05,0.0,0 STARLINK-4645,1 53743U 22107AV  22361.68830900  .00002638  00000-0  18373-3 0  9996,2 53743  53.2204 107.5614 0001866  49.4965 310.6189 15.08852239 18260,6917.843000000003,95.437,540.999,538.4169999999998,0.0
53743.0,STARLINK-4645,PAYLOAD,2022-12-28 06:49:37,15.08855205,0.000187,53.2201,104.8848,50.7035,309.4123,0.00010797,1.431e-05,0.0,0 STARLINK-4645,1 53743U 22107AV  22362.28446539  .00001431  00000-0  10797-3 0  9996,2 53743  53.2201 104.8848 0001870  50.7035 309.4123 15.08855205 18354,6917.834,95.437,540.993,538.405,0.0
53743.0,STARLINK-4645,PAYLOAD,2022-12-29 06:40:27,15.0882688,0.0001965,53.2221,100.4264,45.581,314.5343,-0.00024001,-4.105e-05,0.0,0 STARLINK-4645,1 53743U 22107AV  22363.27809140 -.00004105  00000-0 -24001-3 0  9993,2 53743  53.2221 100.4264 0001965  45.5810 314.5343 15.08826880 17726,6917.92,95.438,541.145,538.4259999999998,0.0
53743.0,STARLINK-4645,PAYLOAD,2022-12-29 13:01:59,15.08825598,0.0001869,53.2206,99.2355,46.9009,313.2139,-0.00019231,-3.346e-05,0.0,0 STARLINK-4645,1 53743U 22107AV  22363.54305234 -.00003346  00000-0 -19231-3 0  9993,2 53743  53.2206  99.2355 0001869  46.9009 313.2139 15.08825598 18548,6917.924,95.438,541.082,538.496,0.0
53743.0,STARLINK-4645,PAYLOAD,2022-12-30 12:52:45,15.08840863,0.0001927,53.2197,94.7749,43.0632,317.0511,0.00018569,2.668e-05,0.0,0 STARLINK-4645,1 53743U 22107AV  22364.53663767  .00002668  00000-0  18569-3 0  9998,2 53743  53.2197  94.7749 0001927  43.0632 317.0511 15.08840863 17917,6917.878000000002,95.438,541.076,538.41,0.0
53743.0,STARLINK-4645,PAYLOAD,2022-12-31 06:21:58,15.08855398,0.0002046999999999,53.2201,91.5049,45.4676,314.6483,0.00046304,7.092e-05,0.0,0 STARLINK-4645,1 53743U 22107AV  22365.26526156  .00007092  00000-0  46304-3 0  9993,2 53743  53.2201  91.5049 0002047  45.4676 314.6483 15.08855398 18022,6917.833000000001,95.437,541.114,538.2819999999998,0.0
53743.0,STARLINK-4645,PAYLOAD,2022-12-31 14:18:55,15.08851673,0.0002095,53.2189,90.0176,42.1572,317.9581,0.00036753,5.568e-05,0.0,0 STARLINK-4645,1 53743U 22107AV  22365.59647285  .00005568  00000-0  36753-3 0  9999,2 53743  53.2189  90.0176 0002095  42.1572 317.9581 15.08851673 18076,6917.845,95.437,541.159,538.26,0.0
53743.0,STARLINK-4645,PAYLOAD,2022-12-31 15:54:18,15.08849215,0.0002035,53.2195,89.72200000000002,42.3958,317.7191,0.00033585,5.062e-05,0.0,0 STARLINK-4645,1 53743U 22107AV  22365.66271386  .00005062  00000-0  33585-3 0  9991,2 53743  53.2195  89.7220 0002035  42.3958 317.7191 15.08849215 18863,6917.852,95.437,541.125,538.309,0.0
53743.0,STARLINK-4645,PAYLOAD,2023-01-01 04:37:25,15.08834723,0.000254,53.2202,87.34200000000001,45.2761,314.8438,-0.00011569,-2.129e-05,0.0,0 STARLINK-4645,1 53743U 22107AV  23001.19265396 -.00002129  00000-0 -11569-3 0  9992,2 53743  53.2202  87.3420 0002540  45.2761 314.8438 15.08834723 18166,6917.897,95.438,541.519,538.004,0.0
53743.0,STARLINK-4645,PAYLOAD,2023-01-01 12:34:20,15.08834375,0.000208,53.2191,85.8546,43.7594,316.3562,-0.00022298,-3.835e-05,0.0,0 STARLINK-4645,1 53743U 22107AV  23001.52384388 -.00003835  00000-0 -22298-3 0  9998,2 53743  53.2191  85.8546 0002080  43.7594 316.3562 15.08834375 18215,6917.898,95.438,541.202,538.3240000000002,0.0
53743.0,STARLINK-4645,PAYLOAD,2023-01-01 22:06:38,15.08842709,0.0001948,53.2204,84.0726,47.5043,312.6113,-0.00013213,-2.391e-05,0.0,0 STARLINK-4645,1 53743U 22107AV  23001.92127940 -.00002391  00000-0 -13213-3 0  9994,2 53743  53.2204  84.0726 0001948  47.5043 312.6113 15.08842709 19058,6917.871999999999,95.437,541.085,538.39,0.0
53743.0,STARLINK-4645,PAYLOAD,2023-01-02 14:00:30,15.08833876,0.0002021999999999,53.221,81.09899999999998,45.2159,314.8997,-6.954300000000001e-05,-1.395e-05,0.0,0 STARLINK-4645,1 53743U 22107AV  23002.58368568 -.00001395  00000-0 -69543-4 0  9991,2 53743  53.2210  81.0990 0002022  45.2159 314.8997 15.08833876 18375,6917.899,95.438,541.163,538.365,0.0
53743.0,STARLINK-4645,PAYLOAD,2023-01-02 21:57:26,15.08825337,0.0002044999999999,53.2205,79.6121,46.2684,313.8477,4.6452e-05,4.51e-06,0.0,0 STARLINK-4645,1 53743U 22107AV  23002.91489323  .00000451  00000-0  46452-4 0  9995,2 53743  53.2205  79.6121 0002045  46.2684 313.8477 15.08825337 18428,6917.925,95.438,541.205,538.375,0.0
53743.0,STARLINK-4645,PAYLOAD,2023-01-03 05:54:22,15.0883359,0.0002008999999999,53.22,78.1249,42.7017,317.4131,0.00025686,3.801e-05,0.0,0 STARLINK-4645,1 53743U 22107AV  23003.24609248  .00003801  00000-0  25686-3 0  9999,2 53743  53.2200  78.1249 0002009  42.7017 317.4131 15.08833590 19258,6917.9,95.438,541.155,538.375,0.0
53743.0,STARLINK-4645,PAYLOAD,2023-01-03 13:51:17,15.08841094,0.0002044,53.2196,76.6378,41.598,318.5167,0.00024424,3.601e-05,0.0,0 STARLINK-4645,1 53743U 22107AV  23003.57729031  .00003601  00000-0  24424-3 0  9995,2 53743  53.2196  76.6378 0002044  41.5980 318.5167 15.08841094 18521,6917.877,95.437,541.156,538.328,0.0
53743.0,STARLINK-4645,PAYLOAD,2023-01-04 10:31:18,15.08841233,0.0002148,53.2205,72.7729,41.6371,318.4785,0.00018042,2.584e-05,0.0,0 STARLINK-4645,1 53743U 22107AV  23004.43841316  .00002584  00000-0  18042-3 0  9990,2 53743  53.2205  72.7729 0002148  41.6371 318.4785 15.08841233 18653,6917.877,95.437,541.2280000000002,538.256,0.0
53743.0,STARLINK-4645,PAYLOAD,2023-01-04 21:39:00,15.08859688,0.0002121,53.22,70.6907,44.0862,316.0299,0.0004851,7.445e-05,0.0,0 STARLINK-4645,1 53743U 22107AV  23004.90208352  .00007445  00000-0  48510-3 0  9993,2 53743  53.2200  70.6907 0002121  44.0862 316.0299 15.08859688 18721,6917.82,95.436,541.1519999999998,538.2180000000002,0.0
53743.0,STARLINK-4645,PAYLOAD,2023-01-05 13:32:50,15.08871671,0.0002058,53.2179,67.7181,35.5135,324.5994,0.00061298,9.489e-05,0.0,0 STARLINK-4645,1 53743U 22107AV  23005.56447434  .00009489  00000-0  61298-3 0  9990,2 53743  53.2179  67.7181 0002058  35.5135 324.5994 15.08871671 19604,6917.784000000002,95.436,541.072,538.225,0.0
53743.0,STARLINK-4645,PAYLOAD,2023-01-05 15:08:13,15.08866023,0.0002066999999999,53.2186,67.4206,41.9352,318.1799,0.00038113,5.787e-05,0.0,0 STARLINK-4645,1 53743U 22107AV  23005.63071436  .00005787  00000-0  38113-3 0  9990,2 53743  53.2186  67.4206 0002067  41.9352 318.1799 15.08866023 19617,6917.801,95.436,541.096,538.236,0.0
53743.0,STARLINK-4645,PAYLOAD,2023-01-06 07:02:05,15.08835249,0.0001936,53.2198,64.4479,39.0247,321.0884,-0.00031616,-5.316e-05,0.0,0 STARLINK-4645,1 53743U 22107AV  23006.29312042 -.00005316  00000-0 -31616-3 0  9995,2 53743  53.2198  64.4479 0001936  39.0247 321.0884 15.08835249 18932,6917.895,95.438,541.099,538.4209999999998,0.0
53743.0,STARLINK-4645,PAYLOAD,2023-01-06 13:23:39,15.08822945,0.0001975,53.219,63.2564,32.9463,327.1652,-0.0002708,-4.593e-05,0.0,0 STARLINK-4645,1 53743U 22107AV  23006.55809111 -.00004593  00000-0 -27080-3 0  9998,2 53743  53.2190  63.2564 0001975  32.9463 327.1652 15.08822945 18974,6917.933000000001,95.439,541.164,538.431,0.0
53743.0,STARLINK-4645,PAYLOAD,2023-01-07 10:03:39,15.08843456,0.0001878,53.2193,59.3919,33.2987,326.8123,0.00021803,3.184e-05,0.0,0 STARLINK-4645,1 53743U 22107AV  23007.41920543  .00003184  00000-0  21803-3 0  9997,2 53743  53.2193  59.3919 0001878  33.2987 326.8123 15.08843456 19109,6917.87,95.437,541.034,538.436,0.0
